Address,City,ZIP_Code,No_Electricity,Basement_Flooded,Roof_Damaged,Insurance,BIN,Latitude,Longitude
179 BROADWAY,NEW YORK,10007,Yes,No,No,No,1001076,40.71018925,-74.01005461
915 Craig Rd S,New York,10004,No,Yes,Yes,No,1086282,40.68507158,-74.02417406
13 Jay St,New York,10013,Yes,No,Yes,No,1002025,40.71824996,-74.00971322
43 exchange pl,new york,10005,Yes,No,No,No,1078991,40.70614752,-74.01031817
239 BROADWAY,MANHATTAN,10007,Yes,Yes,Yes,No,1001408,40.71298901,-74.0078228
1 JOSEPH P WARD ST,NEW YORK,10006,Yes,Yes,Yes,Yes,1090192,40.70782182,-74.01501967
25 fulton st,new york,10038,No,Yes,No,No,1082007,40.70727082,-74.00367962
140 carder rd,new york,10004,No,No,Yes,Yes,1086419,40.69282761,-74.01497481
395 BROADWAY,NEW YORK,10013,Yes,No,No,Yes,1002221,40.71868328,-74.00299265
148 CHAMBERS ST,MANHATTAN,10007,Yes,No,Yes,No,1001496,40.71560804,-74.00992796
43 Charles St,New York,10014,No,No,No,No,1010882,40.73508503,-74.00291446
109 Bank St,Manhattan,10014,No,Yes,Yes,Yes,1011941,40.7364895,-74.00716642
333 W 11 St,New York,10014,No,Yes,No,No,1011906,40.73574729,-74.00773968
51 8 ave,new york,10014,Yes,No,No,No,1011658,40.73866284,-74.00408386
34 Rear Bethune St,Manhattan,10014,No,No,No,No,1076906,40.73719843,-74.00745119
430 Lafayette St,New York,10003,Yes,Yes,Yes,No,1008803,40.72926456,-73.99246193
146 Spring St,Manhattan,10012,No,No,No,No,1007318,40.72413891,-74.00139222
715 Broadway,New York,10003,Yes,No,Yes,Yes,1008831,40.72937126,-73.99393477
76 perry st,manhattan,10014,Yes,No,Yes,No,1011253,40.73526723,-74.00419873
13 CHRISTOPHER ST,NEW YORK,10014,Yes,No,Yes,No,1076916,40.73408114,-74.00048895
342 E 11 St,New York,10003,Yes,No,Yes,No,1006448,40.72940586,-73.98453721
149 1 AVE,NEW YORK,10003,Yes,No,No,Yes,1076847,40.72845217,-73.98498966
111 E 2 ST,NEW YORK,10009,No,No,No,Yes,1005740,40.72342763,-73.98721576
645 E 11 St,Manhattan,10009,No,No,Yes,No,1066552,40.72680194,-73.97744224
160 Ludlow St,Manhattan,10002,No,No,No,Yes,1087887,40.72107592,-73.98758906
253 e 7 st,new york,10009,No,Yes,Yes,Yes,1004520,40.72383037,-73.97778115
118 2 AVE,NEW YORK,10003,No,No,No,No,1006307,40.7279494,-73.98769586
41 1 Ave,New York,10003,No,No,No,Yes,1006133,40.72435409,-73.98801401
182 eldridge st,manhattan,10002,Yes,Yes,Yes,No,1005483,40.72055236,-73.99052993
188 Orchard St,New York,10002,Yes,No,Yes,No,1005392,40.72204351,-73.98807489
254 W 22 St,New York,10011,Yes,No,Yes,Yes,1014094,40.74411603,-73.99826721
222 W 22 ST,NEW YORK,10011,No,No,No,Yes,1014080,40.74363459,-73.99706054
349 w 22 st,new york,10011,Yes,No,No,Yes,1013346,40.74562325,-74.00088719
305 W 45 St,Manhattan,10036,No,No,Yes,Yes,1025010,40.75958675,-73.98881488
408 W 22 ST,MANHATTAN,10011,No,No,No,No,1012646,40.74585008,-74.0022715
135 W 24 St,New York,10011,No,No,No,Yes,1014977,40.74441716,-73.99371426
342 W 47 ST,NEW YORK,10036,Yes,Yes,Yes,No,1025069,40.76112222,-73.98960383
421 w 48 st,manhattan,10036,No,Yes,Yes,No,1026592,40.76294007,-73.99106955
211 w 20 st,new york,10011,Yes,No,No,Yes,1078584,40.74270436,-73.99761388
358 W 30 ST,NEW YORK,10001,Yes,Yes,Yes,Yes,1013505,40.75042328,-73.99758924
8 w 28 st,new york,10001,Yes,Yes,No,Yes,1015694,40.74482321,-73.98818278
24 w 45 st,new york,10036,Yes,Yes,No,Yes,1034233,40.75573345,-73.98086374
948 8 Ave,Manhattan,10019,Yes,Yes,No,No,1070014,40.76595509,-73.9825361
933 BROADWAY,NEW YORK,10010,No,Yes,Yes,No,1080767,40.74039363,-73.98970983
592 AVENUE OF THE AMERICAS,NEW YORK,10011,Yes,Yes,No,No,1015407,40.73934313,-73.99502887
301 7 AVE,NEW YORK,10001,No,No,Yes,No,1015060,40.74665494,-73.99336859
321 5 AVE,MANHATTAN,10016,Yes,No,Yes,No,1087309,40.7473452,-73.98496892
295 7 AVE,MANHATTAN,10001,No,No,No,No,1015059,40.7462846,-73.99365779
142 LEXINGTON AVE,MANHATTAN,10016,Yes,Yes,Yes,No,1018247,40.74353305,-73.98215345
126 LEXINGTON AVE,NEW YORK,10016,Yes,No,Yes,No,1018209,40.74297068,-73.98248271
216 E 39 ST,NEW YORK,10016,No,Yes,No,Yes,1020362,40.74836408,-73.9752039
720 2 AVE,NEW YORK,10016,Yes,Yes,Yes,No,1085014,40.74761763,-73.97354037
327 E 53 St,Manhattan,10022,No,No,Yes,Yes,1039834,40.75633944,-73.96562485
1070 1 Ave,New York,10022,Yes,No,No,Yes,1078277,40.75908159,-73.96205516
5 stuyvesant oval,new york,10009,Yes,Yes,Yes,No,1082882,40.73198928,-73.97942815
128 E 35 St,Manhattan,10016,Yes,No,Yes,Yes,1018540,40.74711039,-73.97984028
1072 2 AVE,NEW YORK,10022,No,No,No,No,1039978,40.75877407,-73.96533302
240 E 52 St,New York,10022,No,No,Yes,Yes,1038479,40.75627428,-73.96848752
148 E 35 St,Manhattan,10016,Yes,Yes,Yes,No,1018534,40.74664625,-73.97856551
413 E 53 ST,MANHATTAN,10022,No,No,No,Yes,1081202,40.75557832,-73.96395095
46 central park w,new york,10023,No,Yes,No,Yes,1028138,40.77171936,-73.97952329
229 W 71 ST,NEW YORK,10023,No,No,No,Yes,1030439,40.77857757,-73.98321529
70 W 85 St,Manhattan,10024,Yes,No,Yes,No,1031335,40.78543049,-73.97222677
129 W 94 ST,NEW YORK,10025,Yes,No,No,Yes,1032558,40.79220321,-73.96951139
172 W 81 ST,MANHATTAN,10024,No,Yes,Yes,Yes,1076245,40.78403708,-73.97686784
163 W 107 St,New York,10025,No,Yes,Yes,No,1000000,40.80093237,-73.96417114
11 W 81 St,Manhattan,10024,No,Yes,Yes,No,1031140,40.78260526,-73.97243213
2121 broadway,manhattan,10023,Yes,Yes,No,Yes,1030724,40.78067952,-73.98192052
130 w 109 st,new york,10025,No,Yes,Yes,Yes,1056019,40.8016923,-73.96320293
351 columbus ave,new york,10024,No,Yes,No,Yes,1028823,40.78035609,-73.97635441
130 E 67 St,Manhattan,10065,No,Yes,No,Yes,1042466,40.76686333,-73.96410242
156 E 61 ST,NEW YORK,10065,Yes,No,Yes,No,1041936,40.76302462,-73.96667084
319 E 93 St,New York,10128,No,No,Yes,Yes,,40.78203016,-73.94732389
143 e 63 st,new york,10065,Yes,Yes,Yes,Yes,1042094,40.76470262,-73.96580916
22 e 81 st,new york,10028,Yes,No,No,No,1046643,40.77767037,-73.96174428
133 E 95 ST,NEW YORK,10128,No,Yes,Yes,Yes,0.0,40.78555271,-73.95182802
153 E 82 St,Manhattan,10028,No,No,No,Yes,1047637,40.77684988,-73.95688957
141 e 72 st,new york,10021,Yes,No,Yes,No,1042845,40.77057183,-73.9618607
403 e 78 st,new york,10075,No,Yes,No,No,1046014,40.77158945,-73.95259333
309 E 81 ST,NEW YORK,10028,Yes,Yes,Yes,Yes,1049843,40.77451975,-73.95321696
417 w 150 st,manhattan,10031,No,No,No,Yes,1061577,40.82782701,-73.94339272
610 W 148 ST,MANHATTAN,10031,No,No,Yes,Yes,0.0,40.82844374,-73.9497792
536 W 126 ST,NEW YORK,10027,Yes,Yes,Yes,No,1079732,40.81519183,-73.95685385
551 W 149 ST,MANHATTAN,10031,Yes,Yes,Yes,Yes,1062082,40.82876642,-73.94751596
29 convent ave,new york,10027,No,No,Yes,No,1059603,40.81389864,-73.95286902
622 W 135 ST,NEW YORK,10031,Yes,Yes,Yes,No,1079754,40.82066622,-73.95707077
85 CONVENT AVE,MANHATTAN,10027,Yes,Yes,Yes,Yes,1089653,40.81603905,-73.95224314
3105 BROADWAY,NEW YORK,10027,Yes,No,No,Yes,1059837,40.81296819,-73.9607396
2 CONVENT AVE,NEW YORK,10027,No,No,Yes,Yes,1059575,40.81290494,-73.95333758
203 edgecombe ave,manhattan,10030,Yes,No,Yes,Yes,1061067,40.8227467,-73.94454574
233 w 122 st,new york,10027,Yes,No,No,Yes,1058597,40.80772009,-73.95085008
2923 8 ave,new york,10039,No,No,Yes,Yes,1060901,40.82912953,-73.93771769
130 W 130 ST,MANHATTAN,10027,No,No,No,Yes,1057993,40.81130217,-73.94450134
2187 8 AVE,NEW YORK,10026,Yes,No,Yes,No,1087277,40.80618165,-73.95450277
109 W 120 St,New York,10027,No,No,Yes,Yes,1057667,40.80509454,-73.94850192
223 W 135 ST,MANHATTAN,10030,Yes,No,Yes,No,1058881,40.81610466,-73.94494016
208 W 114 ST,NEW YORK,10026,No,Yes,Yes,No,1055161,40.80210613,-73.95443089
251 W 145 ST,NEW YORK,10039,No,Yes,Yes,Yes,1060472,40.82283495,-73.94120814
245 W 131 St,New York,10027,No,Yes,No,No,1058696,40.81363193,-73.94715363
245 w 139 st,new york,10030,No,Yes,Yes,Yes,1060390,40.81878602,-73.9435736
1867 2 Ave,New York,10029,No,Yes,No,Yes,1052376,40.78458016,-73.94721748
226 E 113 ST,NEW YORK,10029,No,Yes,No,No,1052514,40.795304,-73.94068043
195 E 100 ST,NEW YORK,10029,No,No,Yes,No,1051802,40.78812827,-73.94786205
1664 Park Ave,Manhattan,10035,Yes,Yes,No,Yes,1051688,40.80038812,-73.94289607
1 SYLVAN CT,NEW YORK,10035,Yes,Yes,Yes,No,1054405,40.80185977,-73.93854747
1875 3 AVE,NEW YORK,10029,No,No,Yes,Yes,1080680,40.78971459,-73.94538584
153 e 96 st,manhattan,10128,Yes,No,No,No,1051704,40.78594872,-73.95042394
51 E 117 St,Manhattan,10035,No,No,No,Yes,1086567,40.80060505,-73.94370132
2172 2 Ave,New York,10029,No,Yes,No,Yes,1052892,40.79412751,-73.93957556
3762 9 ave,manhattan,10034,No,Yes,Yes,Yes,1089601,40.86023867,-73.91984103
2188 amsterdam ave,manhattan,10032,No,No,No,No,1063008,40.84038932,-73.9369168
446 W 167 ST,NEW YORK,10032,No,Yes,Yes,No,1090724,40.83839167,-73.93667283
559 W 186 St,New York,10033,Yes,Yes,No,No,1063802,40.85226335,-73.93071455
666 W 162 ST,NEW YORK,10032,Yes,Yes,Yes,Yes,1063337,40.83809157,-73.9452943
659 W 158 St,New York,10032,No,No,No,No,1063299,40.83627431,-73.94754914
619 W 164 ST,NEW YORK,10032,Yes,No,Yes,Yes,1063374,40.83911925,-73.94283831
3741 broadway,new york,10032,No,No,Yes,No,1063244,40.83315374,-73.94611809
241 Sherman Ave,New York,10034,Yes,No,No,Yes,1064786,40.86569369,-73.91914888
143 Cabrini Blvd,Manhattan,10033,No,Yes,No,No,1082353,40.85304013,-73.93940398
23 Bruckner Blvd,Bronx,10454,No,No,Yes,Yes,2128931,40.80753574,-73.92849043
801 union ave,bronx,10459,Yes,Yes,Yes,No,2114686,40.81920125,-73.90363572
764 E 149 ST,BRONX,10455,No,No,No,No,2115023,40.81274308,-73.90774209
306 E 149 ST,BRONX,10451,Yes,Yes,No,Yes,2000895,40.81677198,-73.92138511
440 e 140 st,bronx,10454,Yes,Yes,Yes,Yes,2000302,40.80966896,-73.92066252
442 E 148 ST,BRONX,10455,Yes,Yes,No,Yes,2000523,40.81446975,-73.91664468
744 CAULDWELL AVE,BRONX,10456,Yes,Yes,Yes,Yes,2094380,40.81895297,-73.90840526
481 jackson ave,bronx,10455,No,Yes,No,No,2003694,40.81152933,-73.90993709
526 e 138 st,bronx,10454,Yes,No,No,Yes,2000039,40.80703419,-73.91866631
2785 3 ave,bronx,10455,Yes,No,No,No,2000845,40.81512918,-73.91982301
772 Hewitt Pl,Bronx,10455,No,No,No,No,2005317,40.81787717,-73.90051235
900 Edgewater Rd,Bronx,10474,No,Yes,No,Yes,2006494,40.82098676,-73.88401717
954 Leggett Ave,Bronx,10455,No,No,Yes,Yes,2005111,40.81530328,-73.90057056
1298 PROSPECT AVE,BRONX,10459,Yes,No,No,No,2098560,40.82814848,-73.89775461
530 TRUXTON ST,BRONX,10474,Yes,Yes,No,No,2006766,40.81027758,-73.89281447
628 faile st,bronx,10474,Yes,Yes,Yes,Yes,2006721,40.81323878,-73.88588178
1130 KELLY ST,BRONX,10459,Yes,Yes,No,No,2005499,40.82697698,-73.89586775
639 manida st,bronx,10474,No,No,No,Yes,2006635,40.81300812,-73.8882709
536 barretto st,bronx,10474,Yes,No,No,No,2006811,40.81104067,-73.88815333
786 DAWSON ST,BRONX,10455,Yes,Yes,No,Yes,2005434,40.81761448,-73.89952208
899 prospect ave,bronx,10459,No,Yes,Yes,No,2098144,40.82129382,-73.90125839
457 E 167 ST,BRONX,10456,No,No,Yes,No,2099464,40.8301523,-73.90819308
1476 vyse ave,bronx,10460,Yes,No,No,No,2099607,40.83234627,-73.8883049
730 E 166 St,Bronx,10456,No,Yes,No,No,2000000,40.82639408,-73.90355868
774 E 169 ST,BRONX,10456,Yes,No,Yes,No,2087647,40.83028606,-73.89947032
815 freeman st,bronx,10459,Yes,Yes,Yes,No,2010339,40.83050331,-73.89761454
1525 bryant ave,bronx,10460,Yes,No,Yes,Yes,2010792,40.83365308,-73.88705654
1372 Franklin Ave,Bronx,10456,No,No,Yes,No,2009735,40.83341827,-73.90050439
653 e 170 st,bronx,10456,No,No,No,No,2120522,40.83399564,-73.89867229
3326 3 AVE,BRONX,10456,Yes,No,Yes,Yes,2115246,40.82613666,-73.90762784
990 SUMMIT AVE,BRONX,10452,No,Yes,Yes,No,2117302,40.83274842,-73.93034635
1540 Jesup Ave,Bronx,10452,Yes,No,No,No,2008704,40.84436477,-73.91822691
315 e 167 st,bronx,10456,No,Yes,Yes,No,2002296,40.83176041,-73.91328255
1063 grant ave,bronx,10456,No,Yes,No,Yes,2002633,40.83039799,-73.9171231
1050 MORRIS AVE,BRONX,10456,No,Yes,No,Yes,2002382,40.82974259,-73.91589215
1336 findlay ave,bronx,10456,No,Yes,No,No,2007047,40.83600987,-73.91020344
351 E 163 St,Bronx,10451,Yes,Yes,No,Yes,2002046,40.82674936,-73.91494772
297 E 163 ST,BRONX,10451,Yes,No,No,Yes,2000000,40.8270874,-73.91642024
1270 Findlay Ave,Bronx,10456,No,Yes,No,No,2002345,40.83414353,-73.91130648
1320 Findlay Ave,Bronx,10456,Yes,Yes,No,No,2007040,40.83554683,-73.91047746
2386 ryer ave,bronx,10458,No,Yes,No,No,2013579,40.85958155,-73.8976739
2355 grand concourse,bronx,10468,No,Yes,Yes,Yes,2013786,40.85909205,-73.89945807
2265 Morris Ave,Bronx,10453,No,Yes,Yes,No,2013994,40.85781748,-73.90238261
2175 Jerome Ave,Bronx,10453,Yes,Yes,No,Yes,2118334,40.85634249,-73.90547554
219 echo pl,bronx,10457,No,Yes,Yes,No,2007731,40.84983749,-73.90463137
2084 GRAND AVE,BRONX,10453,No,Yes,No,Yes,2014161,40.85512241,-73.90800459
1866 Anthony Ave,Bronx,10457,Yes,No,Yes,Yes,2094519,40.84835191,-73.90323834
216 e 175 st,bronx,10457,No,No,No,No,2092044,40.84661593,-73.90672643
2171 Davidson Ave,Bronx,10453,No,Yes,No,No,2090636,40.85670399,-73.90641121
2107 TIEBOUT AVE,BRONX,10457,Yes,Yes,Yes,No,2013365,40.85317125,-73.89895703
2412 hughes ave,bronx,10458,No,No,Yes,No,2012210,40.8554778,-73.88642445
967 E 178 St,Bronx,10460,Yes,Yes,No,Yes,2095470,40.84202148,-73.88127481
1963 Daly Ave,Bronx,10460,No,Yes,No,Yes,2013116,40.84212167,-73.88386357
960 E 180 St,Bronx,10460,No,No,Yes,No,2115996,40.84365315,-73.88049636
4278 3 Ave,Bronx,10457,No,No,Yes,No,2118235,40.84837401,-73.89505975
670 oakland pl,bronx,10457,No,Yes,No,No,2012328,40.84751861,-73.89014391
2364 Crotona Ave,Bronx,10458,No,No,Yes,Yes,2012835,40.85350624,-73.88362731
2166 crotona ave,bronx,10457,No,Yes,Yes,No,2012766,40.84992494,-73.88666086
702 e 182 st,bronx,10457,Yes,Yes,No,No,2115771,40.85030892,-73.88689601
2028 Bathgate Ave,Bronx,10457,Yes,No,No,Yes,2115980,40.84939685,-73.8954786
20 East Kingsbridge Rd,Bronx,10468,No,No,Yes,Yes,2014140,40.8670637,-73.89687619
2776 morris ave,bronx,10468,Yes,Yes,No,Yes,2124490,40.86931217,-73.89417315
34 w 184 st,bronx,10468,No,No,No,No,2014249,40.86090247,-73.90395348
50 w 192 st,bronx,10468,Yes,No,Yes,No,2110007,40.86629286,-73.90080653
392 e 201 st,bronx,10458,No,Yes,No,Yes,2016440,40.86850613,-73.88221009
2825 BAINBRIDGE AVE,BRONX,10458,No,Yes,Yes,Yes,2016885,40.86822368,-73.88924062
409 E 204 ST,BRONX,10467,Yes,No,No,No,0.0,40.87095001,-73.87637538
3 fordham hill oval,bronx,10468,Yes,Yes,Yes,Yes,2092433,40.86474318,-73.90829
201 E 198 ST,BRONX,10458,Yes,No,Yes,Yes,2017167,40.86996092,-73.89024683
3200 jerome ave,bronx,10468,No,Yes,No,No,2017669,40.87743164,-73.88692939
129 Rear Terrace View Ave,Bronx,10463,Yes,No,Yes,Yes,1089893,40.87610689,-73.91334606
3647 CORLEAR AVE,BRONX,10463,No,Yes,No,Yes,2083885,40.88544374,-73.9023185
2851 webb ave,bronx,10468,No,No,Yes,Yes,2015400,40.87343115,-73.90090666
3658 waldo ave,bronx,10463,No,Yes,No,No,2083946,40.88673168,-73.90422933
333 W 262 St,Bronx,10471,No,Yes,No,No,2123728,40.91127025,-73.89915633
5119 post rd,bronx,10471,No,Yes,Yes,No,2084556,40.89610111,-73.89837598
2751 NETHERLAND AVE,BRONX,10463,No,No,No,No,2083351,40.88084546,-73.91338913
4521 waldo ave,bronx,10471,Yes,Yes,Yes,No,2084274,40.89281713,-73.90175912
2737B KINGSBRIDGE TER,BRONX,10463,No,No,No,No,2113435,40.8720128,-73.903632
3058 independence ave,bronx,10463,Yes,Yes,No,Yes,2083493,40.88368364,-73.91667178
1216 Harding Park,Bronx,10473,Yes,Yes,Yes,No,2020109,40.80933262,-73.8580033
281 Surf Dr,Bronx,10473,Yes,Yes,No,No,2119612,40.80516294,-73.85319119
121 WHITE PLAINS RD,BRONX,10473,Yes,Yes,No,Yes,0.0,40.80810696,-73.85531639
1157 Leland Ave,Bronx,10472,Yes,No,No,No,2024402,40.82974108,-73.86321003
1155 Virginia Ave,Bronx,10472,No,Yes,Yes,No,2024548,40.8299868,-73.86053132
1540 Thieriot Ave,Bronx,10460,Yes,No,Yes,No,2028665,40.8388383,-73.86543121
128 sunset blvd,bronx,10473,Yes,Yes,No,Yes,2124328,40.80590386,-73.85385382
2005 CHATTERTON AVE,BRONX,10472,Yes,No,Yes,Yes,2026045,40.8277079,-73.85608258
1223 COMMONWEALTH AVE,BRONX,10472,Yes,No,Yes,Yes,2024627,40.8303387,-73.8681602
518 LELAND AVE,BRONX,10473,Yes,Yes,No,Yes,2021489,40.81598087,-73.85950292
2845 Philip Ave,Bronx,10465,Yes,No,No,No,2080085,40.82706908,-73.82578031
293 WILLIAM AVE,BRONX,10464,No,Yes,No,Yes,2082126,40.84637842,-73.78876177
1060 REVERE AVE,BRONX,10465,No,No,Yes,Yes,2079410,40.83214764,-73.82844234
3070 barkley ave,bronx,10465,No,Yes,No,No,2076649,40.83271037,-73.82262057
1238 MAYFLOWER AVE,BRONX,10461,Yes,No,No,No,2073111,40.83609436,-73.83100629
713 Logan Ave,Bronx,10465,No,No,Yes,Yes,2076934,40.82731262,-73.82058725
197 Hosmer Ave,Bronx,10465,No,Yes,No,Yes,2081692,40.81258592,-73.82624097
3157 Schuyler Pl,Bronx,10461,Yes,No,Yes,Yes,2047401,40.85082019,-73.82927876
3109 Dare Pl,Bronx,10465,No,No,No,No,2079342,40.81124349,-73.80360698
177 TIER ST,BRONX,10464,No,Yes,Yes,No,2082676,40.84889312,-73.78542792
978 RHINELANDER AVE,BRONX,10462,Yes,No,Yes,Yes,2045373,40.84960825,-73.85821392
1232 MACE AVE,BRONX,10469,No,Yes,No,Yes,,40.86270493,-73.85156928
1350 Astor Ave,Bronx,10469,Yes,No,No,No,2050602,40.85963121,-73.8472038
1026 Neill Ave,Bronx,10461,No,No,No,No,2048355,40.85227959,-73.8582352
2331 Holland Ave,Bronx,10467,No,Yes,Yes,No,2050054,40.86065246,-73.8658449
1195 NEILL AVE,BRONX,10461,Yes,Yes,No,Yes,2049234,40.85546807,-73.85224701
2481 delanoy ave,bronx,10469,No,Yes,Yes,No,2087253,40.8623678,-73.83451363
1848 Unionport Rd,Bronx,10462,No,No,No,Yes,2043394,40.84622213,-73.86845204
2305 wallace ave,bronx,10467,No,Yes,Yes,No,2087226,40.85987651,-73.86489945
1637 Hone Ave,Bronx,10461,No,Yes,No,No,2093129,40.8465103,-73.85309829
3352 Wilson Ave,Bronx,10469,No,Yes,Yes,Yes,2060663,40.87488683,-73.85010187
3214 wickham ave,bronx,10469,No,No,No,No,2061580,40.87500342,-73.84005548
709 saint ouen st,bronx,10470,No,Yes,No,Yes,2123516,40.9042212,-73.84925939
3920 duryea ave,bronx,10466,Yes,Yes,Yes,No,2093759,40.88999024,-73.83478587
3916 BAYCHESTER AVE,BRONX,10466,No,Yes,Yes,No,2088102,40.88921554,-73.84194328
3630 harper ave,bronx,10466,Yes,Yes,No,Yes,2066288,40.88514537,-73.8336503
3248 hone ave,bronx,10469,No,No,No,Yes,2056639,40.8725158,-73.85722871
3246 Fish Ave,Bronx,10469,No,Yes,No,Yes,2060892,40.87355032,-73.84835389
714 e 236 st,bronx,10466,No,Yes,No,No,2068242,40.89522594,-73.85567543
3024 HONE AVE,BRONX,10469,No,No,No,No,2055894,40.87033491,-73.85736003
6394 Broadway,Bronx,10471,Yes,Yes,No,No,2128271,40.90147495,-73.89404274
3999 Major Deegan Expy,Bronx,10470,No,Yes,Yes,No,2117803,40.89496461,-73.882628
4000 MAJOR DEEGAN EXPY,BRONX,10470,No,Yes,Yes,Yes,2123993,40.89509035,-73.88144414
2600 SOUTHERN BLVD,BRONX,10458,No,No,Yes,Yes,2127175,40.85894818,-73.88061785
1129 E 180 St,Bronx,10460,Yes,Yes,Yes,No,2101003,40.84201721,-73.87488287
2300 southern blvd,bronx,10460,No,Yes,No,Yes,2116700,40.85110074,-73.88154115
1 BRONX RIVER PKWY,BRONX,10462,No,Yes,No,Yes,2101002,40.84715027,-73.87039448
870 shore rd,bronx,10464,Yes,Yes,No,No,2113522,40.87372793,-73.8086369
22 Shore Rd,Bronx,10464,Yes,No,Yes,Yes,2082927,40.88336991,-73.79352085
1 City Island Rd,Bronx,10464,Yes,No,No,Yes,2118119,40.86343429,-73.80762849
3410 bruckner blvd,bronx,10461,No,No,No,Yes,2049722,40.85065893,-73.81971395
9 Shore Rd,Bronx,10464,Yes,Yes,No,Yes,2118124,40.86593031,-73.81397612
895 Shore Rd,Bronx,10464,Yes,Yes,No,No,2097423,40.87177813,-73.80558761
101 VARET ST,BROOKLYN,11206,No,Yes,No,No,3071522,40.70338402,-73.94145347
121 ECKFORD ST,BROOKLYN,11222,No,No,No,No,3066783,40.72372594,-73.94894842
80 Eagle St,Brooklyn,11222,No,Yes,Yes,Yes,3063898,40.7347532,-73.95778574
569 HUMBOLDT ST,BROOKLYN,11222,Yes,Yes,No,Yes,3067607,40.72204023,-73.94502851
99 meserole ave,brooklyn,11222,Yes,Yes,No,No,3065312,40.72710171,-73.95340357
145 RUTLEDGE ST,BROOKLYN,11211,No,No,No,No,3425330,40.70210452,-73.95746296
225 n 9 st,brooklyn,11211,Yes,No,Yes,Yes,3398182,40.71772644,-73.95421765
159 Franklin St,Brooklyn,11222,Yes,Yes,No,No,3064387,40.73187377,-73.95821798
204 nassau ave,brooklyn,11222,No,No,No,No,3067044,40.72544151,-73.94471479
72 MIDDLETON ST,BROOKLYN,11206,No,No,Yes,No,3061277,40.70130923,-73.95323618
106 SOUTH ELLIOTT PL,BROOKLYN,11217,No,Yes,Yes,No,3059254,40.68626157,-73.97565582
69 HUDSON AVE,BROOKLYN,11201,Yes,No,Yes,Yes,3000121,40.70274128,-73.98097752
28 Pierrepont St,Brooklyn,11201,No,Yes,Yes,No,3001954,40.69582791,-73.99606591
154 smith st,brooklyn,11201,Yes,Yes,Yes,No,3005745,40.68654145,-73.99091636
340 Grand Ave,Brooklyn,11238,No,No,No,Yes,3056220,40.68618695,-73.96259487
289 clermont ave,brooklyn,11205,Yes,No,Yes,No,3059126,40.68881734,-73.96976421
188 south oxford st,brooklyn,11217,Yes,No,No,Yes,3349119,40.68392454,-73.97321124
24 Remsen St,Brooklyn,11201,Yes,No,No,No,3002118,40.69478782,-73.9976555
25 CLERMONT AVE,BROOKLYN,11205,Yes,No,Yes,Yes,3398394,40.69713343,-73.97139596
114 WYCKOFF ST,BROOKLYN,11201,No,Yes,Yes,Yes,3006119,40.68536375,-73.98950819
179 Macdonough St,Brooklyn,11216,No,No,Yes,Yes,3053437,40.68175772,-73.93905624
458a pulaski st,brooklyn,11221,No,Yes,No,Yes,3320298,40.69409938,-73.93259856
368 JEFFERSON AVE,BROOKLYN,11221,No,Yes,No,No,3052424,40.68390381,-73.94307677
365 pulaski st,brooklyn,11206,Yes,Yes,No,No,3043115,40.69410464,-73.93614466
461 jefferson ave,brooklyn,11221,No,Yes,Yes,Yes,3052176,40.68469468,-73.93962656
173 lexington ave,brooklyn,11216,No,Yes,No,No,3056361,40.68735696,-73.9555144
897 GREENE AVE,BROOKLYN,11221,No,Yes,Yes,Yes,3043833,40.69080554,-73.93172013
81 SPENCER ST,BROOKLYN,11205,No,Yes,No,No,3319484,40.69630699,-73.95524707
238 Kosciuszko St,Brooklyn,11221,No,Yes,Yes,Yes,3322133,40.69122636,-73.94505422
612 madison st,brooklyn,11221,Yes,No,No,No,3045145,40.6864757,-73.93379881
101 starr st,brooklyn,11237,No,Yes,Yes,No,3072527,40.70252686,-73.92607003
76 aberdeen st,brooklyn,11207,Yes,No,Yes,No,3080455,40.68290406,-73.90481438
1494 dekalb ave,brooklyn,11237,No,No,Yes,Yes,3073866,40.70171892,-73.92151321
1317 Halsey St,Brooklyn,11237,No,No,Yes,Yes,3078685,40.6942801,-73.90712084
1123 Jefferson Ave,Brooklyn,11221,Yes,Yes,Yes,Yes,3077516,40.68937359,-73.9154427
79 PILLING ST,BROOKLYN,11207,No,Yes,Yes,No,3080270,40.68443445,-73.90742928
165 moffat st,brooklyn,11207,Yes,Yes,Yes,Yes,3079973,40.68733834,-73.90689872
1248 DEKALB AVE,BROOKLYN,11221,No,Yes,Yes,Yes,3073766,40.69658502,-73.92656549
181 TROUTMAN ST,BROOKLYN,11206,Yes,No,No,No,3338450,40.70125239,-73.92833164
1161 halsey st,brooklyn,11207,Yes,Yes,No,No,3078651,40.69058883,-73.91074067
174 Pine St,Brooklyn,11208,No,No,Yes,Yes,3092698,40.68236023,-73.87300846
144 LINCOLN AVE,BROOKLYN,11208,No,No,No,No,3091842,40.68669495,-73.87020612
333 Logan St,Brooklyn,11208,Yes,Yes,Yes,Yes,3348132,40.6782072,-73.87678549
715 hemlock st,brooklyn,11208,No,Yes,No,No,3096134,40.67133028,-73.86773691
99 HEMLOCK ST,BROOKLYN,11208,No,Yes,Yes,Yes,3091055,40.6876747,-73.8718246
1364 Dumont Ave,Brooklyn,11208,Yes,Yes,Yes,Yes,3098591,40.67003009,-73.86738801
72 EUCLID AVE,BROOKLYN,11208,Yes,No,Yes,No,3090888,40.68688932,-73.8753095
726 FORBELL ST,BROOKLYN,11208,No,No,No,No,3348174,40.66680634,-73.86145687
760 livonia ave,brooklyn,11207,Yes,No,Yes,Yes,3391895,40.66537696,-73.88879975
212 HALE AVE,BROOKLYN,11208,Yes,Yes,No,Yes,3088203,40.67993256,-73.8800432
377 DOUGLASS ST,BROOKLYN,11217,No,Yes,No,Yes,3320009,40.67902634,-73.9805006
409 sackett st,brooklyn,11231,No,No,Yes,Yes,3006913,40.68170923,-73.9915773
508 President St,Brooklyn,11215,No,Yes,No,No,3007492,40.6777545,-73.98642118
236 Flatbush Ave,Brooklyn,11217,No,No,No,Yes,3018608,40.68034147,-73.97508746
198 8 st,brooklyn,11215,Yes,No,Yes,Yes,3259260,40.67113555,-73.98895044
131 4 Pl,Brooklyn,11231,No,No,No,No,3008033,40.67774791,-73.99677271
59 TOMPKINS PL,BROOKLYN,11231,Yes,No,Yes,Yes,3004000,40.68410704,-73.9959627
105 14 St,Brooklyn,11215,No,Yes,No,No,3023325,40.66904085,-73.99419982
48 SAINT JOHNS PL,BROOKLYN,11217,Yes,Yes,No,No,3019417,40.67774915,-73.97786323
302 2 st,brooklyn,11215,No,Yes,Yes,Yes,3392416,40.67425119,-73.98505737
466 44 St,Brooklyn,11220,No,No,Yes,No,3011200,40.64866988,-74.00749868
140 SEELEY ST,BROOKLYN,11218,Yes,No,No,Yes,3122155,40.65402895,-73.97714763
419 62 st,brooklyn,11220,Yes,Yes,No,No,3143763,40.63945678,-74.01882629
646 59 St,Brooklyn,11220,Yes,Yes,Yes,Yes,3016334,40.63790519,-74.01234686
363 63 ST,BROOKLYN,11220,Yes,No,No,No,3143928,40.63959013,-74.02062018
4215 7 ave,brooklyn,11232,No,No,No,Yes,3018263,40.64647112,-74.00141156
4228 5 AVE,BROOKLYN,11232,Yes,No,Yes,No,3010863,40.64924092,-74.00634332
5604 3 AVE,BROOKLYN,11220,Yes,No,Yes,No,3015227,40.64438447,-74.01861791
150 31 st,brooklyn,11232,Yes,No,Yes,Yes,3009995,40.65742906,-74.00238934
533 61 st,brooklyn,11220,Yes,No,Yes,No,3143514,40.63852277,-74.01574983
1670 sterling pl,brooklyn,11233,No,Yes,Yes,Yes,3036920,40.67084899,-73.9234292
565 NOSTRAND AVE,BROOKLYN,11216,No,No,No,No,3029820,40.67798404,-73.94944866
1052 LINCOLN PL,BROOKLYN,11213,Yes,No,No,Yes,3032812,40.67016681,-73.94159963
1687 DEAN ST,BROOKLYN,11213,Yes,No,No,No,3324592,40.67609435,-73.93197264
1965 PACIFIC ST,BROOKLYN,11233,No,Yes,Yes,Yes,3378499,40.67644233,-73.9233744
645 Carlton Ave,Brooklyn,11238,No,No,Yes,Yes,3028711,40.6777795,-73.97197724
1563 STERLING PL,BROOKLYN,11213,Yes,No,Yes,No,3036622,40.67148957,-73.92677348
667 Franklin Ave,Brooklyn,11238,No,Yes,No,Yes,3030864,40.67566762,-73.95593794
1338 Lincoln Pl,Brooklyn,11213,Yes,Yes,No,No,3037329,40.66965042,-73.93226814
1897 Pacific St,Brooklyn,11233,Yes,Yes,No,No,3389865,40.67655516,-73.92603897
425 rutland rd,brooklyn,11203,No,No,No,No,3106976,40.65982848,-73.94657668
586 midwood st,brooklyn,11203,No,Yes,No,No,3107049,40.66049677,-73.94122568
888 Montgomery St,Brooklyn,11213,No,No,No,No,3038373,40.66431997,-73.93553896
85 fenimore st,brooklyn,11225,Yes,Yes,No,Yes,3115355,40.65833115,-73.95945621
405 FENIMORE ST,BROOKLYN,11225,No,Yes,Yes,No,3107192,40.65898398,-73.94901833
417 TROY AVE,BROOKLYN,11213,Yes,No,Yes,No,3038370,40.66416836,-73.9368307
408 sterling st,brooklyn,11225,Yes,No,No,Yes,3035103,40.66313638,-73.94741903
252 FENIMORE ST,BROOKLYN,11225,No,Yes,Yes,Yes,3115565,40.65829683,-73.95413855
320 new york ave,brooklyn,11213,Yes,No,No,No,3033253,40.6686973,-73.94810731
1279 CARROLL ST,BROOKLYN,11213,No,Yes,No,No,3033630,40.66716355,-73.94599763
246 95 st,brooklyn,11209,Yes,No,No,No,3155549,40.61741686,-74.03489926
6917 Fort Hamilton Pkwy,Brooklyn,11228,No,Yes,No,Yes,3145950,40.62822604,-74.01241652
241 91 St,Brooklyn,11209,Yes,No,No,No,3154533,40.62052733,-74.03379319
1136 79 st,brooklyn,11228,No,Yes,Yes,Yes,3162434,40.62000005,-74.01341773
59 94 ST,BROOKLYN,11209,Yes,Yes,No,No,3155154,40.61864388,-74.03750437
1126 bay ridge ave,brooklyn,11219,Yes,No,No,Yes,3156381,40.62583206,-74.00770488
8012 NARROWS AVE,BROOKLYN,11209,Yes,No,No,No,3150659,40.62980819,-74.03765259
1016 70 ST,BROOKLYN,11228,Yes,Yes,No,Yes,3146869,40.62670606,-74.01075461
1062 bay ridge ave,brooklyn,11219,Yes,No,Yes,No,3146022,40.62661623,-74.00909118
1034 81 ST,BROOKLYN,11228,No,No,No,Yes,3151910,40.6202259,-74.01683699
2528 harway ave,brooklyn,11214,Yes,No,No,Yes,3187067,40.59202516,-73.99185737
2259 85 St,Brooklyn,11214,No,No,No,No,3165471,40.60179075,-73.99149487
2546 Harway Ave,Brooklyn,11214,No,Yes,Yes,Yes,3187074,40.59179089,-73.99147195
8728 Bay 16 St,Brooklyn,11214,Yes,Yes,No,No,3392712,40.60571907,-74.00696936
2155 74 St,Brooklyn,11204,Yes,No,No,No,3159275,40.60942016,-73.98736673
268 BAY 22 ST,BROOKLYN,11214,Yes,No,Yes,Yes,3169844,40.60032686,-74.00547025
1476 86 ST,BROOKLYN,11228,No,No,Yes,No,3166106,40.61140332,-74.01011171
162 AVENUE S,BROOKLYN,11223,Yes,No,No,Yes,3319840,40.60079973,-73.97957607
8821 15 AVE,BROOKLYN,11228,Yes,No,Yes,No,3000000,40.60688015,-74.01391816
2010 W 12 ST,BROOKLYN,11223,No,Yes,Yes,No,3190748,40.5978333,-73.98373897
1929 51 st,brooklyn,11204,Yes,Yes,No,Yes,3129550,40.62543739,-73.97891352
1574 60 st,brooklyn,11219,Yes,Yes,Yes,No,3000000,40.62501093,-73.9926154
142 MINNA ST,BROOKLYN,11218,Yes,No,Yes,No,3123404,40.64508217,-73.98543201
1314 41 st,brooklyn,11218,Yes,Yes,Yes,No,3135721,40.63914516,-73.98721939
5906 11 AVE,BROOKLYN,11219,Yes,No,No,No,3424375,40.63206499,-74.00272684
925 59 ST,BROOKLYN,11219,No,Yes,No,Yes,3140603,40.63449776,-74.00591362
1719 48 st,brooklyn,11204,Yes,Yes,No,No,3128907,40.62992977,-73.98173934
1646 56 St,Brooklyn,11204,Yes,No,No,No,3130811,40.62624661,-73.98852385
116 Avenue J,Brooklyn,11230,No,No,No,No,3171022,40.62345943,-73.97513437
821 44 St,Brooklyn,11220,Yes,Yes,Yes,No,3011083,40.64428732,-73.99945734
2971 shore pkwy,brooklyn,11235,Yes,Yes,Yes,No,3196180,40.58505276,-73.96194361
2178 W 12 ST,BROOKLYN,11223,Yes,No,No,No,0.0,40.59399576,-73.98298341
3733 Laurel Ave,Brooklyn,11224,No,Yes,No,No,3188319,40.57829716,-74.00480837
2112 Neptune Ave,Brooklyn,11224,No,Yes,No,Yes,3188974,40.57826082,-73.98883468
232 NEPTUNE AVE,BROOKLYN,11235,Yes,No,No,Yes,3244500,40.58134594,-73.96173253
2865 w 20 st,brooklyn,11224,No,Yes,No,Yes,3343441,40.57706147,-73.98667531
158 bay 44 st,brooklyn,11214,No,Yes,Yes,Yes,3186827,40.59138051,-73.98838534
220 Corbin Pl,Brooklyn,11235,No,Yes,No,Yes,3245733,40.57617646,-73.95404141
3002 SURF AVE,BROOKLYN,11224,Yes,No,Yes,No,3322045,40.57212706,-73.99569351
1105 Bowery,Brooklyn,11224,Yes,Yes,No,Yes,3245150,40.57487061,-73.97909694
977 E 26 St,Brooklyn,11210,Yes,Yes,No,Yes,3206817,40.62688122,-73.95050958
4 irvington pl,brooklyn,11230,No,No,Yes,No,3121241,40.63371178,-73.96237256
1301 avenue k,brooklyn,11230,No,Yes,No,Yes,3179935,40.62284295,-73.96264901
3242 BEDFORD AVE,BROOKLYN,11210,Yes,Yes,No,No,3208445,40.62330811,-73.95130761
1607 DORCHESTER RD,BROOKLYN,11226,No,Yes,No,Yes,3000000,40.64004857,-73.96293913
1180 E 15 St,Brooklyn,11230,No,No,No,Yes,3180380,40.62087813,-73.96085119
462 westminster rd,brooklyn,11218,Yes,Yes,Yes,No,3119262,40.63749658,-73.96681097
1016 Ditmas Ave,Brooklyn,11218,No,No,Yes,No,3120081,40.63525098,-73.96697359
1968 OCEAN AVE,BROOKLYN,11230,Yes,Yes,Yes,No,3181619,40.61393903,-73.95453189
953 E 28 St,Brooklyn,11210,No,Yes,Yes,Yes,3206950,40.62765078,-73.94876811
461 LAKE ST,BROOKLYN,11223,No,Yes,Yes,No,3193556,40.59267749,-73.97460582
2534 e 28 st,brooklyn,11235,Yes,Yes,No,No,3204676,40.5906046,-73.94228777
1974 E 22 St,Brooklyn,11229,No,Yes,Yes,Yes,3197112,40.6031345,-73.95035205
1788 e 29 st,brooklyn,11229,Yes,No,No,No,3183593,40.607678,-73.94453764
79 Parkway Ct,Brooklyn,11235,No,Yes,Yes,Yes,3195392,40.58999858,-73.96398481
116 Beacon Ct,Brooklyn,11229,Yes,No,Yes,Yes,3249592,40.59059665,-73.92369042
719 Desmond Ct,Brooklyn,11235,No,No,No,No,3195553,40.5908945,-73.96209918
19 Amherst St,Brooklyn,11235,Yes,Yes,No,Yes,3245853,40.58133301,-73.95250105
1914 E 23 ST,BROOKLYN,11229,Yes,No,No,Yes,3197154,40.60392032,-73.94956359
462 AVENUE V,BROOKLYN,11223,Yes,Yes,No,Yes,3193881,40.59530475,-73.96682642
900 mother gaston blvd,brooklyn,11212,No,No,No,No,3083003,40.65621966,-73.90369607
793 Thomas S Boyland St,Brooklyn,11212,Yes,No,Yes,No,3082131,40.66118895,-73.91120455
65 LEGION ST,BROOKLYN,11212,Yes,Yes,No,Yes,3256529,40.66721838,-73.91766628
632 OSBORN ST,BROOKLYN,11212,Yes,Yes,No,Yes,3082943,40.65618879,-73.90564648
455 CHRISTOPHER AVE,BROOKLYN,11212,Yes,Yes,Yes,Yes,3085243,40.6610391,-73.90338339
163 Riverdale Ave,Brooklyn,11212,Yes,No,No,No,3342604,40.660884,-73.91066543
351 HERZL ST,BROOKLYN,11212,No,Yes,No,No,3389168,40.66129289,-73.9132045
575 chester st,brooklyn,11212,Yes,No,Yes,Yes,3082830,40.657321,-73.90828943
1512 SAINT MARKS AVE,BROOKLYN,11233,No,Yes,No,Yes,3394209,40.67320421,-73.91753965
35 LEGION ST,BROOKLYN,11212,Yes,Yes,Yes,No,3252012,40.66794683,-73.91785462
446 LINDEN BLVD,BROOKLYN,11203,Yes,No,Yes,Yes,3108796,40.65280758,-73.9425714
1412 Nostrand Ave,Brooklyn,11226,No,Yes,No,No,3116827,40.65191176,-73.94987694
912 ralph ave,brooklyn,11236,No,Yes,Yes,No,3103214,40.65216984,-73.92110406
155 LOTT ST,BROOKLYN,11226,No,No,Yes,No,3117950,40.64613217,-73.95390157
894 new york ave,brooklyn,11203,Yes,No,Yes,No,3108599,40.65155636,-73.94701002
1257 Utica Ave,Brooklyn,11203,Yes,Yes,Yes,Yes,3106267,40.64180322,-73.92896114
117 Rockaway Pkwy,Brooklyn,11212,No,No,Yes,Yes,3100167,40.66385414,-73.92268233
6 e 57 st,brooklyn,11203,No,Yes,No,No,3100997,40.65628402,-73.9243119
859 E 49 ST,BROOKLYN,11203,Yes,Yes,Yes,Yes,3106196,40.64045942,-73.92996141
194 LENOX RD,BROOKLYN,11226,Yes,No,Yes,No,3116655,40.65368147,-73.95319031
1863 E 53 ST,BROOKLYN,11234,Yes,Yes,No,No,3240693,40.61303236,-73.92307543
10832 AVENUE N,BROOKLYN,11236,Yes,Yes,Yes,No,3233323,40.64112662,-73.88246829
1273 E 70 ST,BROOKLYN,11234,No,Yes,Yes,Yes,3235697,40.6247192,-73.91323852
1941 coleman st,brooklyn,11234,No,Yes,Yes,Yes,3240504,40.61304084,-73.92854368
3419 Fillmore Ave,Brooklyn,11234,No,No,No,Yes,,40.6109227,-73.93428213
2260 RALPH AVE,BROOKLYN,11234,Yes,No,No,Yes,3219201,40.62274155,-73.91793737
2038 new york ave,brooklyn,11210,No,Yes,No,No,,40.62281459,-73.94346425
961 e 103 st,brooklyn,11236,Yes,Yes,Yes,No,3230463,40.64556082,-73.89463109
1444 E 37 St,Brooklyn,11234,Yes,No,Yes,Yes,3209936,40.62076598,-73.93919201
1162 e 100 st,brooklyn,11236,Yes,No,Yes,Yes,3232006,40.64060552,-73.89358997
35 Empire Blvd,Brooklyn,11225,Yes,No,No,Yes,3029669,40.66358781,-73.96140246
10 GRAND ARMY PLZ,BROOKLYN,11238,No,No,No,Yes,3029665,40.6722904,-73.96837597
450 FLATBUSH AVE,BROOKLYN,11225,Yes,Yes,No,No,3339261,40.6651611,-73.96489104
990 washington ave,brooklyn,11225,No,Yes,Yes,No,3423681,40.66943762,-73.9628267
188 eastern pkwy,brooklyn,11238,Yes,No,No,Yes,3029667,40.67077223,-73.96321808
3260 flatbush ave,brooklyn,11234,Yes,Yes,Yes,Yes,3397749,40.58756321,-73.89895973
7000 Shore Pkwy,Brooklyn,11234,No,Yes,Yes,No,3238577,40.6074642,-73.89683692
950 fountain ave,brooklyn,11239,No,Yes,No,No,3424250,40.65353203,-73.86029088
1 Aviation Rd,Brooklyn,11234,Yes,No,Yes,Yes,3397756,40.58191538,-73.88319343
2906 flatbush ave,brooklyn,11234,No,Yes,Yes,No,3397750,40.59160326,-73.90401016
3200 FLATBUSH AVE,BROOKLYN,11234,No,Yes,No,No,3397748,40.59063115,-73.90278452
22-65 19 st,astoria,11105,No,No,Yes,Yes,4020150,40.77977513,-73.91948332
4-35 27 ave,astoria,11102,No,No,Yes,No,4020653,40.77451958,-73.93201013
26-05 23 ave,astoria,11105,No,Yes,Yes,No,4018272,40.77654754,-73.91550018
24-45 27 ST,ASTORIA,11102,Yes,No,No,No,4017936,40.77290498,-73.91873042
25-54A 48 St,Astoria,11103,Yes,No,Yes,Yes,4013568,40.76368013,-73.90664367
27-17 newtown ave,astoria,11102,Yes,Yes,No,No,4000000,40.76963014,-73.9223426
26-11 14 pl,astoria,11102,Yes,No,No,No,4020588,40.77401869,-73.92759858
18-15 26 RD,ASTORIA,11102,No,No,Yes,No,4431141,40.77339113,-73.92680539
42-17 Broadway,Astoria,11103,No,No,Yes,Yes,4011764,40.75810795,-73.91665496
39-42 22 st,long island city,11101,Yes,No,Yes,Yes,4436773,40.75503176,-73.94015583
57-16-18 37 ave,woodside,11377,Yes,Yes,Yes,No,4311917,40.75001321,-73.90461807
42-26 67 ST,WOODSIDE,11377,Yes,Yes,No,No,4031779,40.74229458,-73.89770579
41-33 49 St,Sunnyside,11104,Yes,Yes,Yes,No,4001150,40.74522885,-73.91517983
50-24 39 Pl,Sunnyside,11104,No,Yes,Yes,No,4003057,40.73746375,-73.92670272
42-40 10 St,Long Island City,11101,Yes,Yes,Yes,No,4005309,40.75273349,-73.9487215
41-15 71 st,woodside,11377,No,Yes,Yes,Yes,4030632,40.74444194,-73.89392096
5-33 50 ave,long island city,11101,Yes,Yes,Yes,Yes,4000128,40.74315205,-73.955079
39-28 58 St,Woodside,11377,Yes,Yes,Yes,Yes,4028277,40.74718496,-73.90591409
39-29 47 ST,SUNNYSIDE,11104,Yes,Yes,No,No,4001377,40.74831371,-73.91649132
59-38 44 ave,woodside,11377,No,Yes,No,No,4031402,40.74193817,-73.90469462
25-52 97 St,East Elmhurst,11369,No,Yes,Yes,Yes,4032660,40.76308225,-73.87263864
30-38 85 ST,EAST ELMHURST,11370,Yes,Yes,No,No,4033185,40.76037697,-73.88364028
26-25 95 st,east elmhurst,11369,Yes,No,No,Yes,4032956,40.76203405,-73.87379735
35-16 99 ST,CORONA,11368,No,Yes,Yes,Yes,4043156,40.75343249,-73.8689416
79-04 31 Ave,East Elmhurst,11370,Yes,No,No,No,4025755,40.75874845,-73.88855836
22-52 94 St,East Elmhurst,11369,Yes,Yes,Yes,No,4023406,40.76870669,-73.87665099
35-40 101 st,corona,11368,Yes,Yes,Yes,Yes,4043246,40.75324295,-73.86668502
93-18 ditmars blvd,east elmhurst,11369,Yes,No,Yes,No,4023385,40.77006017,-73.87694788
34-28 86 ST,JACKSON HEIGHTS,11372,No,Yes,No,Yes,4035585,40.7532982,-73.8814291
24-32 98 st,east elmhurst,11369,Yes,No,Yes,No,4024446,40.76544034,-73.87213554
104-51 43 ave,corona,11368,No,No,Yes,No,4048884,40.74859267,-73.8589391
42-38 77 ST,ELMHURST,11373,No,Yes,Yes,Yes,4037800,40.74246881,-73.88801666
83-23 Dongan Ave,Elmhurst,11373,No,No,Yes,No,4038676,40.74006213,-73.88034161
102-33 43 AVE,CORONA,11368,No,No,Yes,Yes,4431474,40.74770351,-73.86171572
41-46 75 ST,ELMHURST,11373,Yes,No,No,Yes,4036931,40.7439936,-73.89021019
50-10 101 ST,CORONA,11368,No,Yes,No,No,4046836,40.74257871,-73.86204003
94-33 corona ave,elmhurst,11373,No,Yes,No,Yes,4040169,40.74247297,-73.868862
42-24 Hampton St,Elmhurst,11373,Yes,No,Yes,Yes,4038930,40.74439545,-73.87753429
54-15 83 st,elmhurst,11373,No,No,Yes,No,4066135,40.73143206,-73.88183977
108-49 44 AVE,CORONA,11368,No,No,Yes,Yes,4049399,40.74877654,-73.85565437
57-71 74 ST,MIDDLE VILLAGE,11379,No,No,No,Yes,4063031,40.72659739,-73.88680001
58-29 69 Ave,Ridgewood,11385,No,No,Yes,Yes,4083148,40.70170836,-73.90157998
60-33 68 RD,RIDGEWOOD,11385,No,Yes,No,Yes,4084272,40.70398389,-73.89866435
60-35 linden st,ridgewood,11385,Yes,Yes,Yes,No,4084736,40.70946995,-73.90059625
1726 HIMROD ST,RIDGEWOOD,11385,No,Yes,No,Yes,4081939,40.7058312,-73.91380722
69-23 68 PL,GLENDALE,11385,No,No,Yes,No,4088863,40.7055806,-73.88509098
77-16 79 pl,ridgewood,11385,No,No,Yes,No,4092851,40.70628857,-73.87165399
77-27 85 ST,GLENDALE,11385,Yes,No,No,No,4093823,40.7058533,-73.86392571
52-51 73 ST,MASPETH,11378,No,No,Yes,Yes,4057905,40.73232603,-73.89023088
78-28 68 AVE,MIDDLE VILLAGE,11379,No,Yes,Yes,Yes,4091634,40.71095676,-73.87425043
91-08 63 DR,REGO PARK,11374,No,No,Yes,No,4311648,40.72628181,-73.86446506
201 ASCAN AVE,FOREST HILLS,11375,Yes,No,No,No,4078247,40.71273288,-73.84440942
108-45 67 ave,forest hills,11375,Yes,No,No,No,4051856,40.72962534,-73.84598296
88-36 69 Ave,Forest Hills,11375,Yes,No,No,No,4076673,40.7120769,-73.85493715
101-03 Ascan Ave,Forest Hills,11375,No,Yes,Yes,Yes,4078215,40.71196529,-73.84488783
108-29 65 AVE,FOREST HILLS,11375,Yes,No,No,Yes,4051714,40.73211405,-73.84790084
102-04 62 Dr,Forest Hills,11375,No,No,Yes,No,4051054,40.73422247,-73.85513784
67-11 juno st,forest hills,11375,No,No,Yes,Yes,4075565,40.7170843,-73.85671463
62-53 99 St,Rego Park,11374,No,Yes,No,No,4050600,40.73362904,-73.85731002
72-42 manse st,forest hills,11375,Yes,No,No,No,4078084,40.71056312,-73.84644575
42-41 159 st,flushing,11358,No,No,Yes,Yes,4121646,40.75951653,-73.80669172
157-35 27 ave,flushing,11354,No,No,No,Yes,4110166,40.77307604,-73.80561083
33-55 166 ST,FLUSHING,11358,No,No,No,Yes,4118771,40.76600157,-73.79922077
215-04 23 RD,BAYSIDE,11360,Yes,No,No,Yes,4132728,40.78224456,-73.77521924
29-45 167 ST,FLUSHING,11358,Yes,Yes,No,No,4111442,40.76949902,-73.79778793
169-26 26 Ave,Flushing,11358,Yes,Yes,No,Yes,4132751,40.77303796,-73.79420274
154-24 19 AVE,WHITESTONE,11357,No,Yes,Yes,Yes,4107438,40.78129874,-73.80780853
14-23 146 st,whitestone,11357,Yes,Yes,No,Yes,4104572,40.78654482,-73.82009651
40-08 171 St,Flushing,11358,No,No,No,Yes,4120644,40.76055515,-73.79571358
29-59 167 st,flushing,11358,Yes,Yes,No,Yes,4111435,40.76913484,-73.79783688
144-45 melbourne ave,flushing,11367,No,Yes,No,Yes,4141903,40.73468349,-73.82367485
153-08 79 AVE,FLUSHING,11367,No,No,Yes,No,4147699,40.7205808,-73.81075564
146-06 61 RD,FLUSHING,11367,Yes,Yes,No,Yes,4140634,40.74073602,-73.82382822
158-45 76 Rd,Fresh Meadows,11366,Yes,Yes,No,Yes,4311770,40.72482696,-73.80892899
164-42 77 ave,fresh meadows,11366,No,No,No,No,4150883,40.72436112,-73.80306455
73-63 192 St,Fresh Meadows,11366,No,Yes,Yes,Yes,4154272,40.73233431,-73.77931371
69-61 185 St,Fresh Meadows,11365,No,No,No,Yes,4153259,40.73296458,-73.78573109
175-35 mayfield rd,jamaica,11432,No,No,Yes,No,4211382,40.71667294,-73.78992098
67-53 185 ST,FRESH MEADOWS,11365,No,No,Yes,Yes,4537105,40.73488033,-73.78666788
76-36 173 St,Fresh Meadows,11366,No,No,No,No,4151854,40.7256219,-73.79649901
84-31 123 St,Kew Gardens,11415,Yes,No,Yes,Yes,4193033,40.70466329,-73.82875037
94-27 77 st,ozone park,11416,No,Yes,Yes,No,4186946,40.68345689,-73.86196354
85-86 88 st,woodhaven,11421,No,No,No,No,4181797,40.69321918,-73.85686594
91-27 90 St,Woodhaven,11421,Yes,No,Yes,Yes,4186308,40.68830642,-73.85262962
101-51 124 ST,SOUTH RICHMOND HILL,11419,Yes,No,Yes,Yes,4200766,40.68982547,-73.82091068
85-69 75 ST,WOODHAVEN,11421,Yes,No,Yes,No,4180931,40.69295555,-73.86669099
121-06 89 Ave,Richmond Hill,11418,Yes,No,No,No,4196943,40.69783201,-73.82697975
94-32 112 ST,SOUTH RICHMOND HILL,11419,Yes,No,Yes,No,4197464,40.69139263,-73.83366038
116-28 Park Ln S,Richmond Hill,11418,No,No,Yes,Yes,4079239,40.70738276,-73.83718112
133-15 jamaica ave,richmond hill,11418,No,No,Yes,Yes,4194032,40.70256979,-73.81887071
112-20 103 AVE,SOUTH RICHMOND HILL,11419,No,Yes,No,No,4201848,40.68631325,-73.83007683
103-03 131 ST,SOUTH RICHMOND HILL,11419,Yes,Yes,No,No,4204055,40.69059245,-73.81497714
160-08 81 ST,HOWARD BEACH,11414,Yes,No,No,Yes,4293443,40.65555952,-73.85090638
115-16 128 St,South Ozone Park,11420,Yes,No,Yes,Yes,4536056,40.67869778,-73.81169344
103-12 92 st,ozone park,11417,No,Yes,No,No,4189497,40.68115559,-73.8476957
104-34 106 ST,OZONE PARK,11417,No,Yes,No,Yes,4202151,40.68179794,-73.83510239
104-53 122 ST,SOUTH RICHMOND HILL,11419,No,Yes,No,Yes,4204437,40.68569541,-73.82063744
96-28 PITKIN AVE,OZONE PARK,11417,No,Yes,Yes,No,4248746,40.67253408,-73.83914037
130-70 van wyck expy,south ozone park,11420,Yes,No,No,Yes,4255954,40.66927351,-73.8019691
164-36 88 St,Howard Beach,11414,Yes,No,Yes,Yes,4294563,40.64903973,-73.84248573
43-30 247 ST,LITTLE NECK,11363,Yes,No,Yes,Yes,4168886,40.76764871,-73.7410383
67-39-41 218 St,Oakland Gardens,11364,Yes,No,Yes,Yes,4596675,40.7444871,-73.75662658
196-69 45 RD,FLUSHING,11358,Yes,No,No,Yes,4125086,40.75610236,-73.78302198
221-24 Hartland Ave,Queens Village,11427,Yes,Yes,Yes,Yes,4164853,40.73303479,-73.74830894
69-23 210 ST,OAKLAND GARDENS,11364,Yes,No,Yes,No,4459620,40.74025457,-73.76346274
42-40 193 st,flushing,11358,Yes,No,No,Yes,4121101,40.75839015,-73.78881919
82-26 213 st,queens village,11427,No,Yes,Yes,Yes,4165095,40.73097336,-73.7569565
67-19 210 ST,OAKLAND GARDENS,11364,No,Yes,No,No,4162930,40.74193549,-73.76462678
55-11 260 St,Little Neck,11362,Yes,No,Yes,Yes,4173547,40.76577846,-73.7233942
240-45 67 AVE,LITTLE NECK,11362,Yes,Yes,No,No,4172407,40.75190539,-73.7384063
192-02 119 ave,saint albans,11412,No,Yes,Yes,No,4272572,40.689433,-73.75787314
140-19 171 St,Jamaica,11434,Yes,No,No,Yes,4271059,40.67045323,-73.76891807
121-14 197 ST,SPRINGFIELD GARDENS,11413,No,No,No,Yes,4273358,40.68774793,-73.75199312
108-51 guy r brewer blvd,jamaica,11433,No,Yes,Yes,No,4532384,40.69537684,-73.790062
150-46 116 dr,jamaica,11434,Yes,No,Yes,Yes,4264812,40.6816814,-73.79056507
194-30 113 Rd,Saint Albans,11412,No,Yes,Yes,No,4235743,40.69929288,-73.75966232
104-28 194 St,Saint Albans,11412,Yes,No,Yes,No,4232927,40.70662952,-73.76397116
89-14 146 ST,JAMAICA,11435,Yes,No,No,No,4206714,40.70310013,-73.80973422
119-16 164 ST,JAMAICA,11434,No,No,Yes,Yes,4267708,40.68233795,-73.7811091
142-35 Sutter Ave,Jamaica,11436,No,Yes,No,No,4261894,40.67266807,-73.79709757
218-21 133 RD,SPRINGFIELD GARDENS,11413,Yes,Yes,No,Yes,4452504,40.68013645,-73.74993876
233-15 LINDEN BLVD,CAMBRIA HEIGHTS,11411,Yes,Yes,Yes,No,4244784,40.6912389,-73.72840084
225-19 145 Rd,Springfield Gardens,11413,No,No,No,Yes,4533723,40.66195118,-73.75384629
253-23 149 ave,rosedale,11422,No,Yes,No,Yes,4290110,40.65329157,-73.73596683
92-28 221 ST,QUEENS VILLAGE,11428,Yes,Yes,Yes,Yes,4229396,40.72475531,-73.73715134
88-47 Winchester Blvd,Queens Village,11427,Yes,No,No,No,4166859,40.72919584,-73.73677318
92-32 213 ST,QUEENS VILLAGE,11428,Yes,No,No,Yes,4226811,40.71973667,-73.74691888
135-01 226 ST,LAURELTON,11413,Yes,No,Yes,Yes,4281840,40.67552139,-73.74473347
135-20 217 St,Laurelton,11413,Yes,No,Yes,No,4567952,40.67802333,-73.75366656
264-34 langston ave,glen oaks,11004,Yes,No,Yes,Yes,4456658,40.75284075,-73.7136844
347 beach 47 st,far rockaway,11691,Yes,Yes,No,Yes,4301881,40.59477775,-73.77835888
330 cross bay blvd,broad channel,11693,Yes,No,Yes,Yes,4297249,40.6129131,-73.81959024
229 BEACH 29 ST,FAR ROCKAWAY,11691,No,Yes,Yes,Yes,4301590,40.59572535,-73.76236354
11-28 neilson st,far rockaway,11691,Yes,No,No,Yes,4297985,40.6057115,-73.74823303
1A BEACH 85 ST,ROCKAWAY BEACH,11693,No,No,No,No,4453533,40.59140148,-73.81123456
533 BEACH 72 ST,ARVERNE,11692,No,No,Yes,No,4303203,40.59565118,-73.801196
141 BEACH 124 ST,ROCKAWAY PARK,11694,Yes,No,Yes,No,4305044,40.57587084,-73.84317086
335 beach 42 st,far rockaway,11691,No,Yes,Yes,Yes,4531731,40.59497724,-73.77405819
231 Beach 29 St,Far Rockaway,11691,No,No,No,No,4301589,40.59581577,-73.76237991
418 Beach 122 St,Rockaway Park,11694,Yes,Yes,Yes,Yes,4304163,40.58037989,-73.84322936
18-01 45 st,astoria,11105,No,Yes,Yes,No,4430189,40.77734208,-73.89420794
1 MARINE AIR TERMINAL,FLUSHING,11371,No,Yes,Yes,Yes,4453833,40.77356807,-73.88579578
14 UNITED NATIONS AVE S,CORONA,11368,No,No,Yes,No,4464056,40.74419196,-73.84435793
131-40 FOWLER AVE,FLUSHING,11355,Yes,Yes,No,No,4540092,40.75141748,-73.8337793
48 MERIDIAN RD,CORONA,11368,Yes,Yes,No,Yes,4540097,40.75177018,-73.83742544
8 meridian rd,corona,11368,No,No,Yes,Yes,4467715,40.74988791,-73.84704434
126 MERIDIAN RD,CORONA,11368,Yes,No,No,Yes,4458851,40.74587393,-73.84674188
36-02 126 st,corona,11368,No,No,No,Yes,4536844,40.75668433,-73.84504901
47-01 111 St,Corona,11368,Yes,Yes,Yes,No,4441124,40.74729866,-73.85168604
80-30 PARK LN,KEW GARDENS,11415,Yes,Yes,No,No,4442874,40.71077837,-73.83549686
83-98 WOODHAVEN BLVD,WOODHAVEN,11421,Yes,No,Yes,Yes,4439147,40.69790914,-73.8534459
107-02 MYRTLE AVE,RICHMOND HILL,11418,Yes,No,Yes,Yes,4558633,40.7011142,-73.84298158
355 Bayside Ave,Breezy Point,11697,Yes,No,Yes,Yes,4464185,40.56780333,-73.89301641
134 steele rd,breezy point,11697,No,Yes,Yes,Yes,4540285,40.56607144,-73.88490611
389 BAYSIDE AVE,BREEZY POINT,11697,Yes,Yes,Yes,No,4620158,40.56720238,-73.89410493
365 BAYSIDE AVE,BREEZY POINT,11697,No,No,Yes,Yes,4464206,40.56765348,-73.89339964
371 Bayside Ave,Breezy Point,11697,No,Yes,Yes,No,4620372,40.56754346,-73.89358377
367 Bayside Ave,Breezy Point,11697,Yes,No,No,No,4000000,40.56760712,-73.89349888
1 BEACH 193 ST,BREEZY POINT,11697,Yes,Yes,No,No,4307101,40.55769278,-73.9020931
363 Bayside Ave,Breezy Point,11697,No,Yes,Yes,Yes,4464199,40.5677074,-73.89327256
136 Steele Rd,Breezy Point,11697,No,No,No,Yes,4540290,40.56595717,-73.88531417
300 Saint Marks Pl,Staten Island,10301,Yes,No,No,No,5095124,40.64240358,-74.07868745
78a wolkoff ln,staten island,10303,Yes,Yes,No,No,5121334,40.62244465,-74.16677601
463 heberton ave,staten island,10302,Yes,No,No,Yes,5024631,40.6300986,-74.13637227
219A BRUCKNER AVE,STATEN ISLAND,10303,No,No,No,No,5118590,40.62611119,-74.15913844
70 Domain St,Staten Island,10314,Yes,Yes,No,No,5032191,40.61690197,-74.15839706
142 north ave,staten island,10314,No,No,No,No,5011266,40.62177009,-74.13373115
32 Leyden Ave,Staten Island,10303,No,No,No,No,5027798,40.63276797,-74.15934816
32 BENEDICT AVE,STATEN ISLAND,10314,Yes,No,No,Yes,5008826,40.62309829,-74.12305532
315 Van Duzer St,Staten Island,10304,Yes,Yes,Yes,Yes,5013417,40.63021632,-74.0783013
5 NORTH ST,STATEN ISLAND,10302,Yes,No,Yes,Yes,5025256,40.64089821,-74.1346272
143 jackson ave,staten island,10305,Yes,Yes,No,Yes,5046098,40.59442424,-74.06446297
41 ESTHER DEPEW ST,STATEN ISLAND,10306,No,Yes,No,Yes,5037386,40.58079369,-74.13316717
311 mace st,staten island,10306,No,No,No,Yes,5037236,40.57357005,-74.13942582
15 Pershing St,Staten Island,10305,No,Yes,Yes,No,5147541,40.59587128,-74.07138983
70 WENTWORTH AVE,STATEN ISLAND,10305,Yes,Yes,Yes,No,5131370,40.5906545,-74.07146715
53 Nugent Ave,Staten Island,10305,No,No,No,Yes,5050230,40.59096794,-74.07947539
40 Commerce St,Staten Island,10314,Yes,Yes,No,Yes,5031121,40.61258959,-74.16804519
281 lamport blvd,staten island,10305,Yes,Yes,Yes,No,5135294,40.59193406,-74.0751751
548 SEAVIEW AVE,STATEN ISLAND,10305,Yes,No,Yes,No,5129399,40.58250006,-74.08476373
212 FAHY AVE,STATEN ISLAND,10314,Yes,Yes,Yes,Yes,5031842,40.6172698,-74.16340811
260 wood ave,staten island,10307,No,No,No,No,5089198,40.51118787,-74.24257664

